{
    "links": {
        "self": "http://www.neowsapp.com/rest/v1/neo/3825628?api_key=iIulBulltgU6a56xZRHN4H3l9WmuAYTsLGpBGhQ2"
    },
    "id": "3825628",
    "neo_reference_id": "3825628",
    "name": "(2018 NL3)",
    "designation": "2018 NL3",
    "nasa_jpl_url": "http://ssd.jpl.nasa.gov/sbdb.cgi?sstr=3825628",
    "absolute_magnitude_h": 23.6,
    "estimated_diameter": {
        "kilometers": {
            "estimated_diameter_min": 0.0506471459,
            "estimated_diameter_max": 0.1132504611
        },
        "meters": {
            "estimated_diameter_min": 50.6471458835,
            "estimated_diameter_max": 113.2504610618
        },
        "miles": {
            "estimated_diameter_min": 0.0314706677,
            "estimated_diameter_max": 0.0703705522
        },
        "feet": {
            "estimated_diameter_min": 166.1651821003,
            "estimated_diameter_max": 371.5566426699
        }
    },
    "is_potentially_hazardous_asteroid": false,
    "close_approach_data": [
        {
            "close_approach_date": "2018-07-13",
            "close_approach_date_full": "2018-Jul-13 13:04",
            "epoch_date_close_approach": 1531487040000,
            "relative_velocity": {
                "kilometers_per_second": "9.628975309",
                "kilometers_per_hour": "34664.3111122413",
                "miles_per_hour": "21539.0548686035"
            },
            "miss_distance": {
                "astronomical": "0.1314034574",
                "lunar": "51.1159449286",
                "kilometers": "19657677.337675738",
                "miles": "12214714.2938036644"
            },
            "orbiting_body": "Earth"
        },
        {
            "close_approach_date": "2169-07-24",
            "close_approach_date_full": "2169-Jul-24 08:11",
            "epoch_date_close_approach": 6297552660000,
            "relative_velocity": {
                "kilometers_per_second": "8.2228595504",
                "kilometers_per_hour": "29602.2943813793",
                "miles_per_hour": "18393.714528252"
            },
            "miss_distance": {
                "astronomical": "0.1257865377",
                "lunar": "48.9309631653",
                "kilometers": "18817398.114594699",
                "miles": "11692588.9958528862"
            },
            "orbiting_body": "Earth"
        }
    ],
    "orbital_data": {
        "orbit_id": "2",
        "orbit_determination_date": "2018-10-09 06:25:30",
        "first_observation_date": "2018-06-21",
        "last_observation_date": "2018-09-19",
        "data_arc_in_days": 90,
        "observations_used": 22,
        "orbit_uncertainty": "7",
        "minimum_orbit_intersection": ".079342",
        "jupiter_tisserand_invariant": "3.111",
        "epoch_osculation": "2459000.5",
        "eccentricity": ".5926789347031132",
        "semi_major_axis": "2.64850431741919",
        "inclination": "4.080915846098462",
        "ascending_node_longitude": "93.79348645281245",
        "orbital_period": "1574.343352454908",
        "perihelion_distance": "1.078791600014589",
        "perihelion_argument": "221.4897769018571",
        "aphelion_distance": "4.218217034823791",
        "perihelion_time": "2458330.783377624341",
        "mean_anomaly": "153.1419329076391",
        "mean_motion": ".2286667641074891",
        "equinox": "J2000",
        "orbit_class": {
            "orbit_class_type": "AMO",
            "orbit_class_description": "Near-Earth asteroid orbits similar to that of 1221 Amor",
            "orbit_class_range": "1.017 AU < q (perihelion) < 1.3 AU"
        }
    },
    "is_sentry_object": false
}